CHINASAT 9 (ZX 9)       
1 33051U 08028A   18092.83799344 -.00000269  00000-0  00000+0 0  9994
2 33051   0.0004  77.6086 0004032 286.5157 220.8659  1.00270673 35955
SKYNET 5C               
1 33055U 08030A   18097.41157301 -.00000153  00000-0  00000+0 0  9993
2 33055   0.0610  21.3536 0003809  16.2261 288.3809  1.00273141 35884
TURKSAT 3A              
1 33056U 08030B   18096.94485560  .00000131  00000-0  00000-0 0  9998
2 33056   0.0696  83.4561 0004918 311.7004 182.1245  1.00273258 22347
INTELSAT 25 (IS-25)     
1 33153U 08034A   18096.54643366 -.00000239  00000-0  00000+0 0  9995
2 33153   0.0108 223.1030 0001917 112.4223  24.4574  1.00272975 35625
BADR-6                  
1 33154U 08034B   18097.39212604  .00000131  00000-0  00000+0 0  9997
2 33154   0.0645  44.0379 0006209 357.1901 321.5287  1.00273912 35745
ECHOSTAR 11             
1 33207U 08035A   18095.76664467 -.00000073  00000-0  00000+0 0  9990
2 33207   0.0333 105.6422 0002778 271.1625 343.1953  1.00273067 35635
SUPERBIRD-C2            
1 33274U 08038A   18097.43452302 -.00000265  00000-0  00000+0 0  9999
2 33274   0.0178 178.0040 0001595 223.4407  94.5811  1.00272732 35379
AMC-21                  
1 33275U 08038B   18096.53521653  .00000021  00000-0  00000-0 0  9996
2 33275   0.0466  61.1947 0002497 329.2048 232.1397  1.00273932 35479
INMARSAT 4-F3           
1 33278U 08039A   18097.22572203 -.00000152  00000-0  00000+0 0  9999
2 33278   3.0254   4.4288 0002742  23.5880 150.7065  1.00272999 35254
NIMIQ 4                 
1 33373U 08044A   18097.51040465 -.00000234  00000-0  00000+0 0  9994
2 33373   0.0155 135.6844 0002597 243.8949 277.8946  1.00271907 34822
GALAXY 19 (G-19)        
1 33376U 08045A   18096.72797372 -.00000154  00000-0  00000+0 0  9997
2 33376   0.0174 125.6330 0003247 268.7074 325.6725  1.00273537 34821
VENESAT-1               
1 33414U 08055A   18096.82816244 -.00000252  00000-0  00000-0 0  9992
2 33414   0.0535  66.1928 0002099 332.9324  16.0482  1.00270768 34669
ASTRA 1M                
1 33436U 08057A   18096.80971762  .00000105  00000-0  00000+0 0  9998
2 33436   0.0132 238.6762 0002681 188.8908  78.1478  1.00271576 34461
CIEL-2                  
1 33453U 08063A   18097.47972229  .00000044  00000-0  00000+0 0  9999
2 33453   0.0167 191.2911 0003051 194.9544 213.2996  1.00271136 34137
EUTELSAT HOT BIRD 13C   
1 33459U 08065A   18096.42332599  .00000072  00000-0  00000-0 0  9993
2 33459   0.0490   8.1956 0005016  35.3914 316.4441  1.00273527 17339
EUTELSAT 48D            
1 33460U 08065B   18097.53448723  .00000110  00000-0  00000+0 0  9997
2 33460   0.0515  22.1663 0002047   5.6013  48.4975  1.00269326 34101
FENGYUN 2E              
1 33463U 08066A   18096.80417328 -.00000211  00000-0  00000+0 0  9990
2 33463   2.7392  68.5370 0004221 243.4004 258.9867  1.00266286 34079
EXPRESS-AM44            
1 33595U 09007A   18097.41139941 -.00000103  00000-0  00000+0 0  9992
2 33595   0.0165 310.3994 0000824 173.0008 209.3094  1.00271825 33549
NSS-9                   
1 33749U 09008A   18096.88971269  .00000057  00000-0  00000-0 0  9999
2 33749   0.0466  55.8871 0002216 333.0880 309.4930  1.00270818 33500
EUTELSAT 33E            
1 33750U 09008B   18096.86577288  .00000141  00000-0  00000-0 0  9996
2 33750   0.0618  63.4084 0001736 292.4977 183.9346  1.00270725 33449
TELSTAR 11N             
1 34111U 09009A   18097.19840809 -.00000265  00000-0  00000+0 0  9995
2 34111   0.0174 193.2579 0002480 175.0280 221.0156  1.00268666 33409
EUTELSAT 10A            
1 34710U 09016A   18096.87549411  .00000053  00000-0  00000-0 0  9992
2 34710   0.0679   5.7540 0005144   9.9020 144.6158  1.00270309 11243
SES-7 (PROTOSTAR 2)     
1 34941U 09027A   18096.74351473 -.00000360  00000-0  00000-0 0  9997
2 34941   0.0944  87.8313 0001366 249.1011 233.9442  1.00272504 32625
MEASAT-3A               
1 35362U 09032A   18097.20297380 -.00000256  00000-0  00000+0 0  9992
2 35362   0.0292 200.4786 0000704 192.3078 327.2105  1.00272054 32222
GOES 14                 
1 35491U 09033A   18096.74792921 -.00000108  00000-0  00000+0 0  9991
2 35491   0.1152 107.1689 0006511 134.8638 117.8936  1.00272627 32143
SIRIUS FM-5             
1 35493U 09034A   18097.06296014 -.00000215  00000-0  00000+0 0  9991
2 35493   0.0209 285.8671 0001401 103.9459 101.9847  1.00272850 31965
TERRESTAR-1             
1 35496U 09035A   18096.74198532 -.00000071  00000-0  00000+0 0  9995
2 35496   2.6880 351.3128 0003002  27.3096 332.4323  1.00271876 32140
ASIASAT 5               
1 35696U 09042A   18096.88660491 -.00000321  00000-0  00000-0 0  9997
2 35696   0.0074 258.5020 0001711  95.1267 261.1283  1.00269163 31650
JCSAT-RA (JCSAT-12)     
1 35755U 09044A   18096.10481461 -.00000361  00000-0  00000-0 0  9992
2 35755   0.0518  36.7906 0001336 350.9606 332.2470  1.00271508 31597
OPTUS D3                
1 35756U 09044B   18097.42966090 -.00000161  00000-0  00000+0 0  9992
2 35756   0.0170  44.4063 0004297 335.1195 126.8086  1.00269545 31621
PALAPA D                
1 35812U 09046A   18097.14357678 -.00000372  00000-0  00000+0 0  9996
2 35812   0.0347  72.2508 0002251 350.3510 297.4136  1.00270926 31661
NIMIQ 5                 
1 35873U 09050A   18097.01165152 -.00000271  00000-0  00000+0 0  9996
2 35873   0.0327 102.7201 0002802 286.5762  97.4310  1.00272894 31349
AMAZONAS 2              
1 35942U 09054A   18097.19712484 -.00000297  00000-0  00000+0 0  9990
2 35942   0.0427 125.9151 0002863 298.8240 140.6377  1.00274622 31167
COMSATBW-1              
1 35943U 09054B   18096.94997913  .00000010  00000-0  00000-0 0  9998
2 35943   0.0830  86.8278 0003304 311.2833 202.0299  1.00273574 31295
NSS-12                  
1 36032U 09058A   18096.30133678  .00000056  00000-0  00000-0 0  9992
2 36032   0.0442  61.4174 0002988 325.8880 332.7017  1.00272139 30922
THOR 6                  
1 36033U 09058B   18097.40674306 -.00000024  00000-0  00000+0 0  9998
2 36033   0.0229 140.7521 0001840 234.7964 325.6506  1.00272920 30955
INTELSAT 14 (IS-14)     
1 36097U 09064A   18096.58391921 -.00000288  00000-0  00000-0 0  9995
2 36097   0.0184 126.8880 0002711 262.3737 330.7453  1.00270392 30680
EUTELSAT 36B            
1 36101U 09065A   18096.96563800  .00000141  00000-0  00000-0 0  9998
2 36101   0.0679   5.8866 0005063  24.1924 188.6505  1.00270051 30714
INTELSAT 15 (IS-15)     
1 36106U 09067A   18097.04228240 -.00000200  00000-0  00000+0 0  9997
2 36106   0.0177 242.7485 0002403 141.7057 271.1675  1.00273046 30587
DIRECTV 12              
1 36131U 09075A   18095.61720997 -.00000119  00000-0  00000+0 0  9990
2 36131   0.0097 231.7321 0000175 236.3776 205.1390  1.00271073 30350
BEIDOU 3                
1 36287U 10001A   18096.97373344 -.00000297  00000-0  00000+0 0  9990
2 36287   1.4993 357.7023 0002407 131.9180 196.1973  1.00272462 30156
RADUGA-1M 2             
1 36358U 10002A   18097.13868696 -.00000198  00000-0  00000+0 0  9998
2 36358   0.0262 246.9883 0003044 179.8218 263.4720  1.00272676 29998
SDO                     
1 36395U 10005A   18094.48623001 -.00000064  00000-0  00000+0 0  9998
2 36395  29.1110 135.2289 0000414  45.5324  85.1387  1.00274986 29992
INTELSAT 16 (IS-16)     
1 36397U 10006A   18097.08687095 -.00000259  00000-0  00000+0 0  9999
2 36397   0.0124 139.6602 0002243 246.0979 124.6187  1.00272257 29727
GOES 15                 
1 36411U 10008A   18096.83319523  .00000075  00000-0  00000+0 0  9993
2 36411   0.0893 107.9646 0000470  80.4167 171.6101  1.00262679 29671
ECHOSTAR 14             
1 36499U 10010A   18097.28729958 -.00000014  00000-0  00000+0 0  9993
2 36499   0.0172 224.4126 0002494 151.7357 163.8775  1.00272524 29520
SES-1                   
1 36516U 10016A   18097.42966125 -.00000128  00000-0  00000+0 0  9990
2 36516   0.0415  60.3540 0002602 328.3963 220.5652  1.00272591 29128
ASTRA 3B                
1 36581U 10021A   18096.87063222  .00000122  00000-0  00000-0 0  9996
2 36581   0.0446  41.4297 0003268 327.5704 163.0021  1.00271019 28861
COMSATBW-2              
1 36582U 10021B   18096.80071328  .00000073  00000-0  00000+0 0  9990
2 36582   0.0161 252.5743 0002662 149.9300  93.9300  1.00271811 28975
BEIDOU 4                
1 36590U 10024A   18096.97624418 -.00000368  00000-0  00000+0 0  9992
2 36590   1.3333  12.2988 0011570 354.2024 290.6042  1.00266560 28764
BADR-5                  
1 36592U 10025A   18097.39212604  .00000131  00000-0  00000+0 0  9999
2 36592   0.0127 171.7350 0001227 228.8018 322.2013  1.00272810 28893
COMS 1                  
1 36744U 10032A   18097.11438292 -.00000358  00000-0  00000+0 0  9991
2 36744   0.0334  32.0298 0000819 351.4232 341.2511  1.00274158 28643
ARABSAT-5A              
1 36745U 10032B   18096.82786406  .00000139  00000-0  00000+0 0  9998
2 36745   0.0559   5.2231 0003132  10.1490 148.2467  1.00276341 28616
ECHOSTAR 15             
1 36792U 10034A   18097.19714096 -.00000296  00000-0  00000+0 0  9994
2 36792   0.0472  82.5353 0002092 303.6304 178.5531  1.00274882 28383
NILESAT 201             
1 36830U 10037A   18097.40674306 -.00000072  00000-0  00000+0 0  9995
2 36830   0.0448 163.5006 0005717 230.4592 301.1084  1.00271460 28271
RASCOM-QAF 1R           
1 36831U 10037B   18096.45117400  .00000003  00000-0  00000+0 0  9990
2 36831   0.0148 248.9554 0005061 121.9342 349.1131  1.00270584 28275
CHINASAT 6A (ZX 6A)     
1 37150U 10042A   18094.88243936 -.00000371  00000-0  00000+0 0  9999
2 37150   0.0514 123.1735 0003098 356.5698 156.0903  1.00270540 27868
QZS-1 (MICHIBIKI)       
1 37158U 10045A   18096.48035441 -.00000190  00000-0  00000+0 0  9997
2 37158  41.0278 155.0768 0752317 269.9979  79.9438  1.00284063 27694
XM-5                    
1 37185U 10053A   18097.06296014 -.00000219  00000-0  00000+0 0  9998
2 37185   0.0184 228.1550 0001503 161.4289 103.1473  1.00272569 27439
